[{"OBJECT_NAME":"UWE-3","OBJECT_ID":"2013-066AG","EPOCH":"2026-03-14T14:40:53.008032","MEAN_MOTION":14.96242909,"ECCENTRICITY":0.00479073,"INCLINATION":97.8593,"RA_OF_ASC_NODE":29.1621,"ARG_OF_PERICENTER":275.1721,"MEAN_ANOMALY":84.4033,"EPHEMERIS_TYPE":0,"CLASSIFICATION_TYPE":"U","NORAD_CAT_ID":39446,"ELEMENT_SET_NO":999,"REV_AT_EPOCH":66343,"BSTAR":0.00060832099,"MEAN_MOTION_DOT":6.966e-5,"MEAN_MOTION_DDOT":0},{"OBJECT_NAME":"UNISAT-6","OBJECT_ID":"2014-033C","EPOCH":"2026-03-14T09:09:37.260864","MEAN_MOTION":14.876748,"ECCENTRICITY":0.00457598,"INCLINATION":97.773,"RA_OF_ASC_NODE":227.8671,"ARG_OF_PERICENTER":22.598,"MEAN_ANOMALY":337.7238,"EPHEMERIS_TYPE":0,"CLASSIFICATION_TYPE":"U","NORAD_CAT_ID":40012,"ELEMENT_SET_NO":999,"REV_AT_EPOCH":63206,"BSTAR":0.00042208225,"MEAN_MOTION_DOT":3.862e-5,"MEAN_MOTION_DDOT":0},{"OBJECT_NAME":"DUCHIFAT-1","OBJECT_ID":"2014-033M","EPOCH":"2026-03-14T14:32:19.979520","MEAN_MOTION":15.50481818,"ECCENTRICITY":0.00056298,"INCLINATION":98.0635,"RA_OF_ASC_NODE":120.6147,"ARG_OF_PERICENTER":70.3832,"MEAN_ANOMALY":289.8025,"EPHEMERIS_TYPE":0,"CLASSIFICATION_TYPE":"U","NORAD_CAT_ID":40021,"ELEMENT_SET_NO":999,"REV_AT_EPOCH":64103,"BSTAR":0.0015095478,"MEAN_MOTION_DOT":0.00086823,"MEAN_MOTION_DDOT":0},{"OBJECT_NAME":"QB50P1","OBJECT_ID":"2014-033R","EPOCH":"2026-03-14T11:03:09.316800","MEAN_MOTION":15.16630587,"ECCENTRICITY":0.00089121,"INCLINATION":98.1006,"RA_OF_ASC_NODE":78.066,"ARG_OF_PERICENTER":177.3955,"MEAN_ANOMALY":182.7325,"EPHEMERIS_TYPE":0,"CLASSIFICATION_TYPE":"U","NORAD_CAT_ID":40025,"ELEMENT_SET_NO":999,"REV_AT_EPOCH":63866,"BSTAR":0.0005858751,"MEAN_MOTION_DOT":0.00011401,"MEAN_MOTION_DDOT":0},{"OBJECT_NAME":"LILACSAT-2","OBJECT_ID":"2015-049K","EPOCH":"2026-03-14T14:54:27.506880","MEAN_MOTION":15.48228564,"ECCENTRICITY":0.00060713,"INCLINATION":97.4804,"RA_OF_ASC_NODE":107.0174,"ARG_OF_PERICENTER":223.1172,"MEAN_ANOMALY":136.9603,"EPHEMERIS_TYPE":0,"CLASSIFICATION_TYPE":"U","NORAD_CAT_ID":40908,"ELEMENT_SET_NO":999,"REV_AT_EPOCH":58110,"BSTAR":0.00046433454,"MEAN_MOTION_DOT":0.00024422,"MEAN_MOTION_DDOT":0},{"OBJECT_NAME":"FOX-1A (AO-85)","OBJECT_ID":"2015-058D","EPOCH":"2026-03-14T15:00:01.359072","MEAN_MOTION":14.90401583,"ECCENTRICITY":0.01287486,"INCLINATION":64.7751,"RA_OF_ASC_NODE":212.7187,"ARG_OF_PERICENTER":93.9412,"MEAN_ANOMALY":267.6429,"EPHEMERIS_TYPE":0,"CLASSIFICATION_TYPE":"U","NORAD_CAT_ID":40967,"ELEMENT_SET_NO":999,"REV_AT_EPOCH":9947,"BSTAR":0.00041680019,"MEAN_MOTION_DOT":4.594e-5,"MEAN_MOTION_DDOT":0},{"OBJECT_NAME":"CAS-2T & KS-1Q","OBJECT_ID":"2016-066G","EPOCH":"2026-03-14T11:40:37.564896","MEAN_MOTION":14.44485346,"ECCENTRICITY":0.03434906,"INCLINATION":98.3878,"RA_OF_ASC_NODE":150.2835,"ARG_OF_PERICENTER":56.987,"MEAN_ANOMALY":306.3834,"EPHEMERIS_TYPE":0,"CLASSIFICATION_TYPE":"U","NORAD_CAT_ID":41847,"ELEMENT_SET_NO":999,"REV_AT_EPOCH":49112,"BSTAR":0.00020980509,"MEAN_MOTION_DOT":1.442e-5,"MEAN_MOTION_DDOT":0},{"OBJECT_NAME":"RADFXSAT (FOX-1B)","OBJECT_ID":"2017-073E","EPOCH":"2026-03-14T15:04:46.257024","MEAN_MOTION":15.10996825,"ECCENTRICITY":0.01537908,"INCLINATION":97.4861,"RA_OF_ASC_NODE":302.8209,"ARG_OF_PERICENTER":295.0415,"MEAN_ANOMALY":63.4915,"EPHEMERIS_TYPE":0,"CLASSIFICATION_TYPE":"U","NORAD_CAT_ID":43017,"ELEMENT_SET_NO":999,"REV_AT_EPOCH":45110,"BSTAR":0.00061706333,"MEAN_MOTION_DOT":0.00013646,"MEAN_MOTION_DDOT":0},{"OBJECT_NAME":"DIWATA-2B","OBJECT_ID":"2018-084H","EPOCH":"2026-03-14T14:12:28.655712","MEAN_MOTION":14.99988445,"ECCENTRICITY":0.00122946,"INCLINATION":98.1039,"RA_OF_ASC_NODE":265.8299,"ARG_OF_PERICENTER":112.3342,"MEAN_ANOMALY":247.9185,"EPHEMERIS_TYPE":0,"CLASSIFICATION_TYPE":"U","NORAD_CAT_ID":43678,"ELEMENT_SET_NO":999,"REV_AT_EPOCH":40203,"BSTAR":0.00017945132,"MEAN_MOTION_DOT":2.169e-5,"MEAN_MOTION_DDOT":0},{"OBJECT_NAME":"ES'HAIL 2","OBJECT_ID":"2018-090A","EPOCH":"2026-03-14T13:45:56.920608","MEAN_MOTION":1.00272024,"ECCENTRICITY":0.00010887,"INCLINATION":0.0143,"RA_OF_ASC_NODE":132.0856,"ARG_OF_PERICENTER":219.1213,"MEAN_ANOMALY":53.2689,"EPHEMERIS_TYPE":0,"CLASSIFICATION_TYPE":"U","NORAD_CAT_ID":43700,"ELEMENT_SET_NO":999,"REV_AT_EPOCH":2672,"BSTAR":0,"MEAN_MOTION_DOT":1.43e-6,"MEAN_MOTION_DDOT":0},{"OBJECT_NAME":"FOX-1CLIFF (AO-95)","OBJECT_ID":"2018-099N","EPOCH":"2026-03-13T02:55:46.455744","MEAN_MOTION":15.24512623,"ECCENTRICITY":0.00080836,"INCLINATION":97.451,"RA_OF_ASC_NODE":132.8256,"ARG_OF_PERICENTER":333.7998,"MEAN_ANOMALY":26.2829,"EPHEMERIS_TYPE":0,"CLASSIFICATION_TYPE":"U","NORAD_CAT_ID":43770,"ELEMENT_SET_NO":999,"REV_AT_EPOCH":39857,"BSTAR":0.0005568812,"MEAN_MOTION_DOT":0.00013648,"MEAN_MOTION_DDOT":0},{"OBJECT_NAME":"ITASAT","OBJECT_ID":"2018-099AE","EPOCH":"2026-03-14T14:05:55.606560","MEAN_MOTION":15.17766406,"ECCENTRICITY":0.0011748,"INCLINATION":97.4161,"RA_OF_ASC_NODE":127.0167,"ARG_OF_PERICENTER":328.3634,"MEAN_ANOMALY":31.6892,"EPHEMERIS_TYPE":0,"CLASSIFICATION_TYPE":"U","NORAD_CAT_ID":43786,"ELEMENT_SET_NO":999,"REV_AT_EPOCH":39855,"BSTAR":0.00049362225,"MEAN_MOTION_DOT":9.925e-5,"MEAN_MOTION_DDOT":0},{"OBJECT_NAME":"JY1SAT (JO-97)","OBJECT_ID":"2018-099AX","EPOCH":"2026-03-14T14:09:50.320800","MEAN_MOTION":15.30507754,"ECCENTRICITY":0.00049972,"INCLINATION":97.4249,"RA_OF_ASC_NODE":136.2668,"ARG_OF_PERICENTER":235.6318,"MEAN_ANOMALY":124.4451,"EPHEMERIS_TYPE":0,"CLASSIFICATION_TYPE":"U","NORAD_CAT_ID":43803,"ELEMENT_SET_NO":999,"REV_AT_EPOCH":39914,"BSTAR":0.00083934905,"MEAN_MOTION_DOT":0.00024744,"MEAN_MOTION_DDOT":0},{"OBJECT_NAME":"UWE-4","OBJECT_ID":"2018-111E","EPOCH":"2026-03-14T00:40:29.683776","MEAN_MOTION":15.40303245,"ECCENTRICITY":0.00066717,"INCLINATION":97.5847,"RA_OF_ASC_NODE":357.4738,"ARG_OF_PERICENTER":322.1188,"MEAN_ANOMALY":37.9587,"EPHEMERIS_TYPE":0,"CLASSIFICATION_TYPE":"U","NORAD_CAT_ID":43880,"ELEMENT_SET_NO":999,"REV_AT_EPOCH":39610,"BSTAR":0.00089456289,"MEAN_MOTION_DOT":0.00036111,"MEAN_MOTION_DDOT":0},{"OBJECT_NAME":"TIANYAN 01","OBJECT_ID":"2019-093C","EPOCH":"2026-03-14T14:24:05.236704","MEAN_MOTION":14.86351712,"ECCENTRICITY":0.00146149,"INCLINATION":97.7603,"RA_OF_ASC_NODE":148.1218,"ARG_OF_PERICENTER":42.8077,"MEAN_ANOMALY":317.4274,"EPHEMERIS_TYPE":0,"CLASSIFICATION_TYPE":"U","NORAD_CAT_ID":44881,"ELEMENT_SET_NO":999,"REV_AT_EPOCH":33736,"BSTAR":8.3997498e-5,"MEAN_MOTION_DOT":6.88e-6,"MEAN_MOTION_DDOT":0},{"OBJECT_NAME":"RS-44 & BREEZE-KM R/B","OBJECT_ID":"2019-096E","EPOCH":"2026-03-14T09:46:09.976224","MEAN_MOTION":12.79747576,"ECCENTRICITY":0.02177247,"INCLINATION":82.5211,"RA_OF_ASC_NODE":42.6787,"ARG_OF_PERICENTER":6.305,"MEAN_ANOMALY":354.0711,"EPHEMERIS_TYPE":0,"CLASSIFICATION_TYPE":"U","NORAD_CAT_ID":44909,"ELEMENT_SET_NO":999,"REV_AT_EPOCH":29022,"BSTAR":5.3930889e-5,"MEAN_MOTION_DOT":2.4e-7,"MEAN_MOTION_DDOT":0}]
